BEIDOU-2 IGSO-5         
1 37948U 11073A   26167.77414794 -.00000173  00000+0  00000+0 0  9998
2 37948  47.6786 271.5506 0113948 221.6919 142.2288  1.00272872 53131
LUCH-5A                 
1 37951U 11074B   26167.52651134 -.00000058  00000+0  00000+0 0  9999
2 37951   8.7528  73.8170 0002210  23.4514 164.0170  1.00270124 53045
BEIDOU-2 G5             
1 38091U 12008A   26167.76770330  .00000053  00000+0  00000+0 0  9993
2 38091   3.5725  69.6978 0009121 272.6554 257.7037  1.00271656 52369
BEIDOU-2 M3             
1 38250U 12018A   26167.11475951 -.00000071  00000+0  00000+0 0  9992
2 38250  55.7590 304.9118 0020112 273.9514  85.8020  1.86229770 95924
BEIDOU-2 M4             
1 38251U 12018B   26167.58401991 -.00000071  00000+0  00000+0 0  9997
2 38251  55.6588 304.1100 0011286 275.8041  84.0525  1.86229380 95931
SES-5                   
1 38652U 12036A   26167.75703976  .00000030  00000+0  00000+0 0  9993
2 38652   0.0491 313.9360 0001858 141.1437  87.4557  1.00264687 44455
BEIDOU-2 M6             
1 38775U 12050B   26164.07202103 -.00000056  00000+0  00000+0 0  9992
2 38775  56.5408  63.0305 0013772 356.7295   3.2873  1.86230840 93236
GSAT-10                 
1 38779U 12051B   26167.73836396 -.00000167  00000+0  00000+0 0  9993
2 38779   0.0816 262.6400 0007797 184.8351 166.3452  1.00269913 50093
NAVSTAR 67 (USA 239)    
1 38833U 12053A   26167.31905498  .00000037  00000+0  00000+0 0  9995
2 38833  53.5858 143.6349 0180243  65.7434 296.0930  2.00567399 99422
GSAT0103 (GALILEO-FM3)  
1 38857U 12055A   26167.30243359 -.00000013  00000+0  00000+0 0  9998
2 38857  55.8061 101.5699 0004782 306.3587  53.5598  1.70473326 84990
BEIDOU-2 G6             
1 38953U 12059A   26167.73836310 -.00000181  00000+0  00000+0 0  9997
2 38953   4.4198  73.5241 0009587 324.3071 217.0195  1.00272017 49904
LUCH-5B                 
1 38977U 12061A   26166.96871394 -.00000144  00000+0  00000+0 0  9990
2 38977  10.4794  49.8909 0002521 151.7333  35.0817  1.00272153 49595
COSMOS 2485 [GLONASS-M] 
1 39155U 13019A   26166.97148047 -.00000021  00000+0  00000+0 0  9990
2 39155  65.4190  73.6456 0023179 234.1140 125.7013  2.13103301102251
NAVSTAR 68 (USA 242)    
1 39166U 13023A   26167.18601316 -.00000020  00000+0  00000+0 0  9993
2 39166  54.5048 269.0144 0141537  51.0389 310.2484  2.00563389 95862
IRNSS-1A                
1 39199U 13034A   26160.59779131  .00000070  00000+0  00000+0 0  9994
2 39199  35.7049  63.9797 0017411 184.2474 279.8453  1.00272948 47299
NAVSTAR 69 (USA 248)    
1 39533U 14008A   26167.18763547  .00000044  00000+0  00000+0 0  9995
2 39533  53.6545 149.3604 0084228 231.2656 127.9534  2.00559661 89663
ASTRA 5B                
1 39617U 14011B   26167.47555459  .00000136  00000+0  00000+0 0  9997
2 39617   0.0452 340.6495 0001744  94.4588  24.3375  1.00273179 44668
COSMOS 2492 [GLONASS-M] 
1 39620U 14012A   26166.93034490 -.00000054  00000+0  00000+0 0  9999
2 39620  65.2984 313.9789 0010434 325.0727  34.8423  2.13103210 95218
IRNSS-1B                
1 39635U 14017A   26167.76718330  .00000124  00000+0  00000+0 0  9991
2 39635  28.9227 240.4107 0023087 189.8783 166.0734  1.00276230 44781
LUCH-5V                 
1 39727U 14023A   26167.77492795 -.00000275  00000+0  00000+0 0  9993
2 39727   5.1311  69.7442 0001836  48.8396 160.1315  1.00274535 44359
NAVSTAR 70 (USA 251)    
1 39741U 14026A   26166.96454397 -.00000082  00000+0  00000+0 0  9994
2 39741  56.4989 331.5650 0038176 326.5795  33.1716  2.00560957 88519
COSMOS 2500 [GLONASS-M] 
1 40001U 14032A   26164.28459738 -.00000051  00000+0  00000+0 0  9995
2 40001  65.2352 313.8168 0007281 184.1744 175.8059  2.13106047 93378
NAVSTAR 71 (USA 256)    
1 40105U 14045A   26167.05630185 -.00000025  00000+0  00000+0 0  9990
2 40105  55.3526  88.5100 0033267 118.2726 242.0568  2.00558255 86056
GSAT0201 (GALILEO 5)    
1 40128U 14050A   26167.33896520 -.00000044  00000+0  00000+0 0  9990
2 40128  48.8765 273.4713 1674587 179.3614 180.9380  1.85519940 78300
GSAT0202 (GALILEO 6)    
1 40129U 14050B   26167.05552588 -.00000041  00000+0  00000+0 0  9990
2 40129  48.8935 272.5683 1675632 180.0754 179.9514  1.85520518 80462
IRNSS-1C                
1 40269U 14061A   26167.73856350 -.00000167  00000+0  00000+0 0  9995
2 40269   6.5166  88.9398 0022717   2.3779 162.5463  1.00269403 42681
NAVSTAR 72 (USA 258)    
1 40294U 14068A   26166.92633972 -.00000068  00000+0  00000+0 0  9993
2 40294  56.9867  31.0033 0067029  70.5476 290.2360  2.00576019 85189
COSMOS 2501 [GLONASS-K] 
1 40315U 14075A   26167.36219398  .00000074  00000+0  00000+0 0  9992
2 40315  63.6161 190.4005 0022630 212.4313 147.4857  2.13101280 89838
NAVSTAR 73 (USA 260)    
1 40534U 15013A   26167.06525027  .00000062  00000+0  00000+0 0  9991
2 40534  53.1679 204.2241 0109497  40.1202 320.7619  2.00551392 81805
GSAT0203 (GALILEO 7)    
1 40544U 15017A   26166.45306799 -.00000083  00000+0  00000+0 0  9995
2 40544  56.7863 341.6427 0002092 278.6810  81.2938  1.70475984 69175
GSAT0204 (GALILEO 8)    
1 40545U 15017B   26165.53569013 -.00000079  00000+0  00000+0 0  9999
2 40545  56.7953 341.6863 0001910 248.0709 111.9109  1.70475571 32203
